OBJECT_NAME,OBJECT_ID,EPOCH,MEAN_MOTION,ECCENTRICITY,INCLINATION,RA_OF_ASC_NODE,ARG_OF_PERICENTER,MEAN_ANOMALY,EPHEMERIS_TYPE,CLASSIFICATION_TYPE,NORAD_CAT_ID,ELEMENT_SET_NO,REV_AT_EPOCH,BSTAR,MEAN_MOTION_DOT,MEAN_MOTION_DDOT
CROCUBE,2024-247T,2026-06-17T16:25:00.765696,15.48292245,.00079679,44.9716,256.7472,338.3414,21.7139,0,U,62394,999,8342,.53654775E-3,.2875E-3,0
TEVEL2-4,2025-052D,2026-06-19T04:53:04.519392,15.34669894,.00049379,97.3896,66.5983,99.1474,261.0328,0,U,63213,999,7042,.47064472E-3,.15753E-3,0
TEVEL2-5,2025-052E,2026-06-19T05:22:55.427232,15.34496992,.00048787,97.3892,66.5660,100.7080,259.4713,0,U,63214,999,7042,.46766436E-3,.15567E-3,0
TEVEL2-6,2025-052F,2026-06-19T05:40:44.873472,15.34461785,.00047515,97.3899,66.5630,101.2362,258.9415,0,U,63215,999,7042,.46276133E-3,.15385E-3,0
TEVEL2-1,2025-052H,2026-06-19T04:49:38.105472,15.33924273,.00047971,97.3871,66.1496,109.7033,250.4728,0,U,63217,999,7040,.46186445E-3,.15095E-3,0
TEVEL2-3,2025-052J,2026-06-19T06:15:45.041472,15.33981417,.00048192,97.3873,66.2314,109.8969,250.2793,0,U,63218,999,7041,.46440968E-3,.15207E-3,0
TEVEL2-2,2025-052K,2026-06-19T04:50:04.224192,15.33933117,.00047874,97.3874,66.1522,109.9793,250.1966,0,U,63219,999,7040,.4686282E-3,.15322E-3,0
TEVEL2-9,2025-052AD,2026-06-19T05:55:21.941472,15.31950359,.00079517,97.3933,65.5684,125.0554,235.1435,0,U,63237,999,7034,.45689444E-3,.1404E-3,0
TEVEL2-7,2025-052AE,2026-06-19T05:20:46.029408,15.31652594,.00080263,97.3935,65.4597,125.5065,234.6926,0,U,63238,999,7033,.4363994E-3,.13282E-3,0
TEVEL2-8,2025-052AF,2026-06-19T05:32:40.767360,15.31637489,.00080398,97.3936,65.4447,125.8812,234.3177,0,U,63239,999,7033,.43718322E-3,.13299E-3,0
FORESAIL-1 PRIME,2025-276DS,2026-06-19T05:40:54.172704,15.18717781,.00039543,97.4197,243.4703,99.0145,261.1537,0,U,66778,999,3071,.19349687E-3,.3949E-4,0
